{"type": "FeatureCollection", "features": [ {"type": "Feature", "properties": {"norad_id": 66545, "name": "SHIJIAN-30A", "group": "last-30-days", "lat": -50.440875856188896, "lon": -109.15656893144595, "alt_km": 522.9105297602655, "timestamp": "2025-12-14T18:52:54.241785+00:00", "meta": {"OBJECT_NAME": "SHIJIAN-30A", "OBJECT_ID": "2025-266A", "EPOCH": "2025-12-13T22:39:14.681952", "MEAN_MOTION": 15.15485827, "ECCENTRICITY": 0.00128444, "INCLINATION": 51.798, "RA_OF_ASC_NODE": 327.2211, "ARG_OF_PERICENTER": 0.887, "MEAN_ANOMALY": 359.2127, "EPHEMERIS_TYPE": 0, "CLASSIFICATION_TYPE": "U", "NORAD_CAT_ID": 66545, "ELEMENT_SET_NO": 999, "REV_AT_EPOCH": 376, "BSTAR": 0.00074194655, "MEAN_MOTION_DOT": 0.00013966, "MEAN_MOTION_DDOT": 0}, "tle": {"line1": "1 66545U 25266A   25347.94391993  .00013966  00000+0  74195-3 0  9998", "line2": "2 66545  51.7980 327.2211 0012844   0.8870 359.2127 15.15485827  3769"}}, "geometry": {"type": "Point", "coordinates": [-109.15656893144595, -50.440875856188896]}}, {"type": "Feature", "properties": {"norad_id": 66546, "name": "SHIJIAN-30B", "group": "last-30-days", "lat": -51.53391330223474, "lon": -119.16452747337695, "alt_km": 524.4624325712675, "timestamp": "2025-12-14T18:52:54.241796+00:00", "meta": {"OBJECT_NAME": "SHIJIAN-30B", "OBJECT_ID": "2025-266B", "EPOCH": "2025-12-13T22:40:55.113312", "MEAN_MOTION": 15.15454556, "ECCENTRICITY": 0.00105767, "INCLINATION": 51.7963, "RA_OF_ASC_NODE": 327.2247, "ARG_OF_PERICENTER": 4.17, "MEAN_ANOMALY": 355.9363, "EPHEMERIS_TYPE": 0, "CLASSIFICATION_TYPE": "U", "NORAD_CAT_ID": 66546, "ELEMENT_SET_NO": 999, "REV_AT_EPOCH": 376, "BSTAR": 0.00080021601, "MEAN_MOTION_DOT": 0.00015067, "MEAN_MOTION_DDOT": 0}, "tle": {"line1": "1 66546U 25266B   25347.94508233  .00015067  00000+0  80022-3 0  9996", "line2": "2 66546  51.7963 327.2247 0010576   4.1700 355.9363 15.15454556  3769"}}, "geometry": {"type": "Point", "coordinates": [-119.16452747337695, -51.53391330223474]}}, {"type": "Feature", "properties": {"norad_id": 66547, "name": "SHIJIAN-30C", "group": "last-30-days", "lat": -51.7300607074772, "lon": -123.3527299241339, "alt_km": 523.8604079927272, "timestamp": "2025-12-14T18:52:54.241806+00:00", "meta": {"OBJECT_NAME": "SHIJIAN-30C", "OBJECT_ID": "2025-266C", "EPOCH": "2025-12-13T22:41:33.609696", "MEAN_MOTION": 15.15405156, "ECCENTRICITY": 0.00114386, "INCLINATION": 51.7973, "RA_OF_ASC_NODE": 327.2294, "ARG_OF_PERICENTER": 355.8027, "MEAN_ANOMALY": 4.2851, "EPHEMERIS_TYPE": 0, "CLASSIFICATION_TYPE": "U", "NORAD_CAT_ID": 66547, "ELEMENT_SET_NO": 999, "REV_AT_EPOCH": 376, "BSTAR": 0.00069437085, "MEAN_MOTION_DOT": 0.00013013, "MEAN_MOTION_DDOT": 0}, "tle": {"line1": "1 66547U 25266C   25347.94552789  .00013013  00000+0  69437-3 0  9998", "line2": "2 66547  51.7973 327.2294 0011438 355.8027   4.2851 15.15405156  3767"}}, "geometry": {"type": "Point", "coordinates": [-123.3527299241339, -51.7300607074772]}}, {"type": "Feature", "properties": {"norad_id": 66548, "name": "CZ-2C R/B", "group": "last-30-days", "lat": 12.27897540598796, "lon": 131.7472638580777, "alt_km": 418.84848795003654, "timestamp": "2025-12-14T18:52:54.241817+00:00", "meta": {"OBJECT_NAME": "CZ-2C R/B", "OBJECT_ID": "2025-266D", "EPOCH": "2025-12-13T15:31:11.830080", "MEAN_MOTION": 15.30203489, "ECCENTRICITY": 0.00838681, "INCLINATION": 52.0545, "RA_OF_ASC_NODE": 326.9594, "ARG_OF_PERICENTER": 176.1429, "MEAN_ANOMALY": 184.0222, "EPHEMERIS_TYPE": 0, "CLASSIFICATION_TYPE": "U", "NORAD_CAT_ID": 66548, "ELEMENT_SET_NO": 999, "REV_AT_EPOCH": 375, "BSTAR": 0.00040296409, "MEAN_MOTION_DOT": 0.00012924, "MEAN_MOTION_DDOT": 0}, "tle": {"line1": "1 66548U 25266D   25347.64666470  .00012924  00000+0  40296-3 0  9991", "line2": "2 66548  52.0545 326.9594 0083868 176.1429 184.0222 15.30203489  3752"}}, "geometry": {"type": "Point", "coordinates": [131.7472638580777, 12.27897540598796]}}, {"type": "Feature", "properties": {"norad_id": 66549, "name": "SHIJIAN-28", "group": "last-30-days", "lat": -2.4104391964095866, "lon": 123.67908997286486, "alt_km": 35785.63880177093, "timestamp": "2025-12-14T18:52:54.241831+00:00", "meta": {"OBJECT_NAME": "SHIJIAN-28", "OBJECT_ID": "2025-277A", "EPOCH": "2025-12-14T00:17:41.174304", "MEAN_MOTION": 1.00271842, "ECCENTRICITY": 8.454e-05, "INCLINATION": 5.0152, "RA_OF_ASC_NODE": 274.9364, "ARG_OF_PERICENTER": 132.6945, "MEAN_ANOMALY": 156.5843, "EPHEMERIS_TYPE": 0, "CLASSIFICATION_TYPE": "U", "NORAD_CAT_ID": 66549, "ELEMENT_SET_NO": 999, "REV_AT_EPOCH": 29, "BSTAR": 0, "MEAN_MOTION_DOT": -3.42e-06, "MEAN_MOTION_DDOT": 0}, "tle": {"line1": "1 66549U 25277A   25348.01228211 -.00000342  00000+0  00000+0 0  9990", "line2": "2 66549   5.0152 274.9364 0000845 132.6945 156.5843  1.00271842   295"}}, "geometry": {"type": "Point", "coordinates": [123.67908997286486, -2.4104391964095866]}}, {"type": "Feature", "properties": {"norad_id": 66550, "name": "CZ-7A R/B", "group": "last-30-days", "lat": -2.685233413072837, "lon": -101.67100624432, "alt_km": 24863.527525116504, "timestamp": "2025-12-14T18:52:54.241843+00:00", "meta": {"OBJECT_NAME": "CZ-7A R/B", "OBJECT_ID": "2025-277B", "EPOCH": "2025-12-12T23:59:46.063680", "MEAN_MOTION": 2.69999213, "ECCENTRICITY": 0.70164962, "INCLINATION": 14.3833, "RA_OF_ASC_NODE": 269.7494, "ARG_OF_PERICENTER": 189.2871, "MEAN_ANOMALY": 143.2042, "EPHEMERIS_TYPE": 0, "CLASSIFICATION_TYPE": "U", "NORAD_CAT_ID": 66550, "ELEMENT_SET_NO": 999, "REV_AT_EPOCH": 35, "BSTAR": 0.0022608485, "MEAN_MOTION_DOT": 0.01807848, "MEAN_MOTION_DDOT": -2.55676e-07}, "tle": {"line1": "1 66550U 25277B   25346.99983870  .01807848 -25568-6  22608-2 0  9997", "line2": "2 66550  14.3833 269.7494 7016496 189.2871 143.2042  2.69999213   350"}}, "geometry": {"type": "Point", "coordinates": [-101.67100624432, -2.685233413072837]}}, {"type": "Feature", "properties": {"norad_id": 66551, "name": "USA 568", "group": "last-30-days", "lat": -43.12922760084608, "lon": 132.9917595286169, "alt_km": 27.700937892684124, "timestamp": "2025-12-14T18:52:54.241855+00:00", "meta": {"OBJECT_NAME": "USA 568", "OBJECT_ID": "2024-134K", "EPOCH": "2025-12-02T16:00:03.000096", "MEAN_MOTION": 15.87051116, "ECCENTRICITY": 7.17e-05, "INCLINATION": 53.1571, "RA_OF_ASC_NODE": 236.7807, "ARG_OF_PERICENTER": 110.7411, "MEAN_ANOMALY": 313.9012, "EPHEMERIS_TYPE": 0, "CLASSIFICATION_TYPE": "U", "NORAD_CAT_ID": 66551, "ELEMENT_SET_NO": 999, "REV_AT_EPOCH": 262, "BSTAR": -0.0074303, "MEAN_MOTION_DOT": -0.01709685, "MEAN_MOTION_DDOT": 0}, "tle": {"line1": "1 66551U 24134K   25336.66670139 -.01709685  00000+0 -74303-2 0  9990", "line2": "2 66551  53.1571 236.7807 0000717 110.7411 313.9012 15.87051116  2624"}}, "geometry": {"type": "Point", "coordinates": [132.9917595286169, -43.12922760084608]}}, {"type": "Feature", "properties": {"norad_id": 66554, "name": "GLOBAL-33", "group": "last-30-days", "lat": -13.83395471861542, "lon": -118.95178817965053, "alt_km": 474.079333644132, "timestamp": "2025-12-14T18:52:54.241865+00:00", "meta": {"OBJECT_NAME": "GLOBAL-33", "OBJECT_ID": "2025-267A", "EPOCH": "2025-12-13T21:39:48.312864", "MEAN_MOTION": 15.31571977, "ECCENTRICITY": 0.00049277, "INCLINATION": 42.0179, "RA_OF_ASC_NODE": 50.2807, "ARG_OF_PERICENTER": 73.8701, "MEAN_ANOMALY": 286.2679, "EPHEMERIS_TYPE": 0, "CLASSIFICATION_TYPE": "U", "NORAD_CAT_ID": 66554, "ELEMENT_SET_NO": 999, "REV_AT_EPOCH": 358, "BSTAR": 0.00027437928, "MEAN_MOTION_DOT": 8.305e-05, "MEAN_MOTION_DDOT": 0}, "tle": {"line1": "1 66554U 25267A   25347.90264251  .00008305  00000+0  27438-3 0  9990", "line2": "2 66554  42.0179  50.2807 0004927  73.8701 286.2679 15.31571977  3583"}}, "geometry": {"type": "Point", "coordinates": [-118.95178817965053, -13.83395471861542]}}, {"type": "Feature", "properties": {"norad_id": 66555, "name": "ELECTRON KICK STAGE R/B", "group": "last-30-days", "lat": -41.757112626778515, "lon": -37.53750018580527, "alt_km": 474.2408679256514, "timestamp": "2025-12-14T18:52:54.241878+00:00", "meta": {"OBJECT_NAME": "ELECTRON KICK STAGE R/B", "OBJECT_ID": "2025-267B", "EPOCH": "2025-12-13T21:21:25.257888", "MEAN_MOTION": 15.32886014, "ECCENTRICITY": 0.00065085, "INCLINATION": 42.0199, "RA_OF_ASC_NODE": 50.1825, "ARG_OF_PERICENTER": 62.3193, "MEAN_ANOMALY": 297.8305, "EPHEMERIS_TYPE": 0, "CLASSIFICATION_TYPE": "U", "NORAD_CAT_ID": 66555, "ELEMENT_SET_NO": 999, "REV_AT_EPOCH": 358, "BSTAR": 0.00082018633, "MEAN_MOTION_DOT": 0.00026477, "MEAN_MOTION_DDOT": 0}, "tle": {"line1": "1 66555U 25267B   25347.88987567  .00026477  00000+0  82019-3 0  9996", "line2": "2 66555  42.0199  50.1825 0006508  62.3193 297.8305 15.32886014  3586"}}, "geometry": {"type": "Point", "coordinates": [-37.53750018580527, -41.757112626778515]}}, {"type": "Feature", "properties": {"norad_id": 66557, "name": "STARLINK-35699", "group": "last-30-days", "lat": 13.033878369794644, "lon": 123.60797114893069, "alt_km": 412.30645361103325, "timestamp": "2025-12-14T18:52:54.241888+00:00", "meta": {"OBJECT_NAME": "STARLINK-35699", "OBJECT_ID": "2025-268A", "EPOCH": "2025-12-13T19:36:42.331968", "MEAN_MOTION": 15.50592436, "ECCENTRICITY": 0.00016209, "INCLINATION": 42.9995, "RA_OF_ASC_NODE": 114.8976, "ARG_OF_PERICENTER": 271.7894, "MEAN_ANOMALY": 88.2781, "EPHEMERIS_TYPE": 0, "CLASSIFICATION_TYPE": "U", "NORAD_CAT_ID": 66557, "ELEMENT_SET_NO": 999, "REV_AT_EPOCH": 479, "BSTAR": 0.0024435786, "MEAN_MOTION_DOT": 0.00145782, "MEAN_MOTION_DDOT": 0}, "tle": {"line1": "1 66557U 25268A   25347.81715662  .00145782  00000+0  24436-2 0  9996", "line2": "2 66557  42.9995 114.8976 0001620 271.7894  88.2781 15.50592436  4796"}}, "geometry": {"type": "Point", "coordinates": [123.60797114893069, 13.033878369794644]}}]}